STARLINK-2727
1 48652U 21044Q   26092.87649082  .00063069  00000+0  11726-2 0  9991
2 48652  53.0529 357.3108 0001730 137.9028 222.2113 15.48320648267570
